"ABE"|{"IATA_code":"ABE","airport_name":"Lehigh Valley International Airport","city":"Allentown","state":"PA","country":"USA","latitude":40.65236,"longitude":-75.4404}
"ABI"|{"IATA_code":"ABI","airport_name":"Abilene Regional Airport","city":"Abilene","state":"TX","country":"USA","latitude":32.41132,"longitude":-99.6819}
"ABQ"|{"IATA_code":"ABQ","airport_name":"Albuquerque International Sunport","city":"Albuquerque","state":"NM","country":"USA","latitude":35.04022,"longitude":-106.60919}
"ABR"|{"IATA_code":"ABR","airport_name":"Aberdeen Regional Airport","city":"Aberdeen","state":"SD","country":"USA","latitude":45.44906,"longitude":-98.42183}
"ABY"|{"IATA_code":"ABY","airport_name":"Southwest Georgia Regional Airport","city":"Albany","state":"GA","country":"USA","latitude":31.53552,"longitude":-84.19447}
"ACK"|{"IATA_code":"ACK","airport_name":"Nantucket Memorial Airport","city":"Nantucket","state":"MA","country":"USA","latitude":41.25305,"longitude":-70.06018}
"ACT"|{"IATA_code":"ACT","airport_name":"Waco Regional Airport","city":"Waco","state":"TX","country":"USA","latitude":31.61129,"longitude":-97.23052}
"ACV"|{"IATA_code":"ACV","airport_name":"Arcata Airport","city":"Arcata\/Eureka","state":"CA","country":"USA","latitude":40.97812,"longitude":-124.10862}
"ACY"|{"IATA_code":"ACY","airport_name":"Atlantic City International Airport","city":"Atlantic City","state":"NJ","country":"USA","latitude":39.45758,"longitude":-74.57717}
"ADK"|{"IATA_code":"ADK","airport_name":"Adak Airport","city":"Adak","state":"AK","country":"USA","latitude":51.87796,"longitude":-176.64603}
"ADQ"|{"IATA_code":"ADQ","airport_name":"Kodiak Airport","city":"Kodiak","state":"AK","country":"USA","latitude":57.74997,"longitude":-152.49386}
"AEX"|{"IATA_code":"AEX","airport_name":"Alexandria International Airport","city":"Alexandria","state":"LA","country":"USA","latitude":31.32737,"longitude":-92.54856}
"AGS"|{"IATA_code":"AGS","airport_name":"Augusta Regional Airport\u00c2 (Bush Field)","city":"Augusta","state":"GA","country":"USA","latitude":33.36996,"longitude":-81.9645}
"AKN"|{"IATA_code":"AKN","airport_name":"King Salmon Airport","city":"King Salmon","state":"AK","country":"USA","latitude":58.6768,"longitude":-156.64922}
"ALB"|{"IATA_code":"ALB","airport_name":"Albany International Airport","city":"Albany","state":"NY","country":"USA","latitude":42.74812,"longitude":-73.80298}
"ALO"|{"IATA_code":"ALO","airport_name":"Waterloo Regional Airport","city":"Waterloo","state":"IA","country":"USA","latitude":42.55708,"longitude":-92.40034}
"AMA"|{"IATA_code":"AMA","airport_name":"Rick Husband Amarillo International Airport","city":"Amarillo","state":"TX","country":"USA","latitude":35.21937,"longitude":-101.70593}
"ANC"|{"IATA_code":"ANC","airport_name":"Ted Stevens Anchorage International Airport","city":"Anchorage","state":"AK","country":"USA","latitude":61.17432,"longitude":-149.99619}
"APN"|{"IATA_code":"APN","airport_name":"Alpena County Regional Airport","city":"Alpena","state":"MI","country":"USA","latitude":45.07807,"longitude":-83.56029}
"ASE"|{"IATA_code":"ASE","airport_name":"Aspen-Pitkin County Airport","city":"Aspen","state":"CO","country":"USA","latitude":39.22316,"longitude":-106.86885}
"ATL"|{"IATA_code":"ATL","airport_name":"Hartsfield-Jackson Atlanta International Airport","city":"Atlanta","state":"GA","country":"USA","latitude":33.64044,"longitude":-84.42694}
"ATW"|{"IATA_code":"ATW","airport_name":"Appleton International Airport","city":"Appleton","state":"WI","country":"USA","latitude":44.25741,"longitude":-88.51948}
"AUS"|{"IATA_code":"AUS","airport_name":"Austin-Bergstrom International Airport","city":"Austin","state":"TX","country":"USA","latitude":30.19453,"longitude":-97.66987}
"AVL"|{"IATA_code":"AVL","airport_name":"Asheville Regional Airport","city":"Asheville","state":"NC","country":"USA","latitude":35.43619,"longitude":-82.54181}
"AVP"|{"IATA_code":"AVP","airport_name":"Wilkes-Barre\/Scranton International Airport","city":"Wilkes-Barre\/Scranton","state":"PA","country":"USA","latitude":41.33815,"longitude":-75.72427}
"AZO"|{"IATA_code":"AZO","airport_name":"Kalamazoo\/Battle Creek International Airport","city":"Kalamazoo","state":"MI","country":"USA","latitude":42.23488,"longitude":-85.55206}
"BDL"|{"IATA_code":"BDL","airport_name":"Bradley International Airport","city":"Windsor Locks","state":"CT","country":"USA","latitude":41.93887,"longitude":-72.68323}
"BET"|{"IATA_code":"BET","airport_name":"Bethel Airport","city":"Bethel","state":"AK","country":"USA","latitude":60.77978,"longitude":-161.838}
"BFL"|{"IATA_code":"BFL","airport_name":"Meadows Field","city":"Bakersfield","state":"CA","country":"USA","latitude":35.4336,"longitude":-119.05677}
"BGM"|{"IATA_code":"BGM","airport_name":"Greater Binghamton Airport","city":"Binghamton","state":"NY","country":"USA","latitude":42.20848,"longitude":-75.97961}
"BGR"|{"IATA_code":"BGR","airport_name":"Bangor International Airport","city":"Bangor","state":"ME","country":"USA","latitude":44.80744,"longitude":-68.82814}
"BHM"|{"IATA_code":"BHM","airport_name":"Birmingham-Shuttlesworth International Airport","city":"Birmingham","state":"AL","country":"USA","latitude":33.56294,"longitude":-86.75355}
"BIL"|{"IATA_code":"BIL","airport_name":"Billings Logan International Airport","city":"Billings","state":"MT","country":"USA","latitude":45.80766,"longitude":-108.54286}
"BIS"|{"IATA_code":"BIS","airport_name":"Bismarck Municipal Airport","city":"Bismarck","state":"ND","country":"USA","latitude":46.77411,"longitude":-100.74672}
"BJI"|{"IATA_code":"BJI","airport_name":"Bemidji Regional Airport","city":"Bemidji","state":"MN","country":"USA","latitude":47.50942,"longitude":-94.93372}
"BLI"|{"IATA_code":"BLI","airport_name":"Bellingham International Airport","city":"Bellingham","state":"WA","country":"USA","latitude":48.79275,"longitude":-122.53753}
"BMI"|{"IATA_code":"BMI","airport_name":"Central Illinois Regional Airport at Bloomington-Normal","city":"Bloomington","state":"IL","country":"USA","latitude":40.47799,"longitude":-88.91595}
"BNA"|{"IATA_code":"BNA","airport_name":"Nashville International Airport","city":"Nashville","state":"TN","country":"USA","latitude":36.12448,"longitude":-86.67818}
"BOI"|{"IATA_code":"BOI","airport_name":"Boise Airport\u00c2 (Boise Air Terminal)","city":"Boise","state":"ID","country":"USA","latitude":43.56444,"longitude":-116.22278}
"BOS"|{"IATA_code":"BOS","airport_name":"Gen. Edward Lawrence Logan International Airport","city":"Boston","state":"MA","country":"USA","latitude":42.36435,"longitude":-71.00518}
"BPT"|{"IATA_code":"BPT","airport_name":"Jack Brooks Regional Airport\u00c2 (Southeast Texas Regional)","city":"Beaumont\/Port Arthur","state":"TX","country":"USA","latitude":29.95083,"longitude":-94.02069}
"BQK"|{"IATA_code":"BQK","airport_name":"Brunswick Golden Isles Airport","city":"Brunswick","state":"GA","country":"USA","latitude":31.25903,"longitude":-81.46631}
"BQN"|{"IATA_code":"BQN","airport_name":"Rafael Hern\u00c3\u00a1ndez Airport","city":"Aguadilla","state":"PR","country":"USA","latitude":18.49486,"longitude":-67.12944}
"BRD"|{"IATA_code":"BRD","airport_name":"Brainerd Lakes Regional Airport","city":"Brainerd","state":"MN","country":"USA","latitude":46.39786,"longitude":-94.13723}
"BRO"|{"IATA_code":"BRO","airport_name":"Brownsville\/South Padre Island International Airport","city":"Brownsville","state":"TX","country":"USA","latitude":25.90683,"longitude":-97.42586}
"BRW"|{"IATA_code":"BRW","airport_name":"Wiley Post-Will Rogers Memorial Airport","city":"Barrow","state":"AK","country":"USA","latitude":71.28545,"longitude":-156.766}
"BTM"|{"IATA_code":"BTM","airport_name":"Bert Mooney Airport","city":"Butte","state":"MT","country":"USA","latitude":45.9548,"longitude":-112.49746}
"BTR"|{"IATA_code":"BTR","airport_name":"Baton Rouge Metropolitan Airport","city":"Baton Rouge","state":"LA","country":"USA","latitude":30.53316,"longitude":-91.14963}
"BTV"|{"IATA_code":"BTV","airport_name":"Burlington International Airport","city":"Burlington","state":"VT","country":"USA","latitude":44.473,"longitude":-73.15031}
"BUF"|{"IATA_code":"BUF","airport_name":"Buffalo Niagara International Airport","city":"Buffalo","state":"NY","country":"USA","latitude":42.94052,"longitude":-78.73217}
"BUR"|{"IATA_code":"BUR","airport_name":"Bob Hope Airport\u00c2 (Hollywood Burbank Airport)","city":"Burbank","state":"CA","country":"USA","latitude":34.20062,"longitude":-118.3585}
"BWI"|{"IATA_code":"BWI","airport_name":"Baltimore-Washington International Airport","city":"Baltimore","state":"MD","country":"USA","latitude":39.1754,"longitude":-76.6682}
"BZN"|{"IATA_code":"BZN","airport_name":"Bozeman Yellowstone International Airport\u00c2 (Gallatin Field Airport)","city":"Bozeman","state":"MT","country":"USA","latitude":45.7769,"longitude":-111.15301}
"CAE"|{"IATA_code":"CAE","airport_name":"Columbia Metropolitan Airport","city":"Columbia","state":"SC","country":"USA","latitude":33.93884,"longitude":-81.11954}
"CAK"|{"IATA_code":"CAK","airport_name":"Akron-Canton Regional Airport","city":"Akron","state":"OH","country":"USA","latitude":40.91631,"longitude":-81.44247}
"CDC"|{"IATA_code":"CDC","airport_name":"Cedar City Regional Airport","city":"Cedar City","state":"UT","country":"USA","latitude":37.70097,"longitude":-113.09858}
"CDV"|{"IATA_code":"CDV","airport_name":"Merle K. (Mudhole) Smith Airport","city":"Cordova","state":"AK","country":"USA","latitude":60.49183,"longitude":-145.47765}
"CEC"|{"IATA_code":"CEC","airport_name":"Del Norte County Airport\u00c2 (Jack McNamara Field)","city":"Crescent City","state":"CA","country":"USA","latitude":41.78016,"longitude":-124.23653}
"CHA"|{"IATA_code":"CHA","airport_name":"Chattanooga Metropolitan Airport\u00c2 (Lovell Field)","city":"Chattanooga","state":"TN","country":"USA","latitude":35.03527,"longitude":-85.20379}
"CHO"|{"IATA_code":"CHO","airport_name":"Charlottesville-Albemarle Airport","city":"Charlottesville","state":"VA","country":"USA","latitude":38.13864,"longitude":-78.45286}
"CHS"|{"IATA_code":"CHS","airport_name":"Charleston International Airport\/Charleston AFB","city":"Charleston","state":"SC","country":"USA","latitude":32.89865,"longitude":-80.04051}
"CID"|{"IATA_code":"CID","airport_name":"The Eastern Iowa Airport","city":"Cedar Rapids","state":"IA","country":"USA","latitude":41.88459,"longitude":-91.71087}
"CIU"|{"IATA_code":"CIU","airport_name":"Chippewa County International Airport","city":"Sault Ste. Marie","state":"MI","country":"USA","latitude":46.25075,"longitude":-84.47239}
"CLD"|{"IATA_code":"CLD","airport_name":"McClellan-Palomar Airport","city":"San Diego","state":"CA","country":"USA","latitude":33.12723,"longitude":-117.27873}
"CLE"|{"IATA_code":"CLE","airport_name":"Cleveland Hopkins International Airport","city":"Cleveland","state":"OH","country":"USA","latitude":41.41089,"longitude":-81.8494}
"CLL"|{"IATA_code":"CLL","airport_name":"Easterwood Airport","city":"College Station","state":"TX","country":"USA","latitude":30.58859,"longitude":-96.36382}
"CLT"|{"IATA_code":"CLT","airport_name":"Charlotte Douglas International Airport","city":"Charlotte","state":"NC","country":"USA","latitude":35.21401,"longitude":-80.94313}
"CMH"|{"IATA_code":"CMH","airport_name":"Port Columbus International Airport","city":"Columbus","state":"OH","country":"USA","latitude":39.99799,"longitude":-82.89188}
"CMI"|{"IATA_code":"CMI","airport_name":"University of Illinois - Willard Airport","city":"Champaign\/Urbana","state":"IL","country":"USA","latitude":40.03925,"longitude":-88.27806}
"CMX"|{"IATA_code":"CMX","airport_name":"Houghton County Memorial Airport","city":"Hancock","state":"MI","country":"USA","latitude":47.16842,"longitude":-88.48906}
"CNY"|{"IATA_code":"CNY","airport_name":"Canyonlands Field","city":"Moab","state":"UT","country":"USA","latitude":38.75496,"longitude":-109.75484}
"COD"|{"IATA_code":"COD","airport_name":"Yellowstone Regional Airport","city":"Cody","state":"WY","country":"USA","latitude":44.52019,"longitude":-109.0238}
"COS"|{"IATA_code":"COS","airport_name":"City of Colorado Springs Municipal Airport","city":"Colorado Springs","state":"CO","country":"USA","latitude":38.80581,"longitude":-104.70025}
"COU"|{"IATA_code":"COU","airport_name":"Columbia Regional Airport","city":"Columbia","state":"MO","country":"USA","latitude":38.81809,"longitude":-92.21963}
"CPR"|{"IATA_code":"CPR","airport_name":"Natrona County International Airport","city":"Casper","state":"WY","country":"USA","latitude":42.90836,"longitude":-106.46447}
"CRP"|{"IATA_code":"CRP","airport_name":"Corpus Christi International Airport","city":"Corpus Christi","state":"TX","country":"USA","latitude":27.77036,"longitude":-97.50122}
"CRW"|{"IATA_code":"CRW","airport_name":"Yeager Airport","city":"Charleston","state":"WV","country":"USA","latitude":38.37315,"longitude":-81.59319}
"CSG"|{"IATA_code":"CSG","airport_name":"Columbus Metropolitan Airport","city":"Columbus","state":"GA","country":"USA","latitude":32.51633,"longitude":-84.93886}
"CVG"|{"IATA_code":"CVG","airport_name":"Cincinnati\/Northern Kentucky International Airport","city":"Covington","state":"KY","country":"USA","latitude":39.04614,"longitude":-84.66217}
"CWA"|{"IATA_code":"CWA","airport_name":"Central Wisconsin Airport","city":"Mosinee","state":"WI","country":"USA","latitude":44.77762,"longitude":-89.66678}
"DAB"|{"IATA_code":"DAB","airport_name":"Daytona Beach International Airport","city":"Daytona Beach","state":"FL","country":"USA","latitude":29.17992,"longitude":-81.05806}
"DAL"|{"IATA_code":"DAL","airport_name":"Dallas Love Field","city":"Dallas","state":"TX","country":"USA","latitude":32.84711,"longitude":-96.85177}
"DAY"|{"IATA_code":"DAY","airport_name":"James M. Cox Dayton International Airport","city":"Dayton","state":"OH","country":"USA","latitude":39.90238,"longitude":-84.21938}
"DBQ"|{"IATA_code":"DBQ","airport_name":"Dubuque Regional Airport","city":"Dubuque","state":"IA","country":"USA","latitude":42.40296,"longitude":-90.70917}
"DCA"|{"IATA_code":"DCA","airport_name":"Ronald Reagan Washington National Airport","city":"Arlington","state":"VA","country":"USA","latitude":38.85208,"longitude":-77.03772}
"DEN"|{"IATA_code":"DEN","airport_name":"Denver International Airport","city":"Denver","state":"CO","country":"USA","latitude":39.85841,"longitude":-104.667}
"DFW"|{"IATA_code":"DFW","airport_name":"Dallas\/Fort Worth International Airport","city":"Dallas-Fort Worth","state":"TX","country":"USA","latitude":32.89595,"longitude":-97.0372}
"DHN"|{"IATA_code":"DHN","airport_name":"Dothan Regional Airport","city":"Dothan","state":"AL","country":"USA","latitude":31.32134,"longitude":-85.44963}
"DIK"|{"IATA_code":"DIK","airport_name":"Dickinson Theodore Roosevelt Regional Airport","city":"Dickinson","state":"ND","country":"USA","latitude":46.79739,"longitude":-102.80195}
"DLG"|{"IATA_code":"DLG","airport_name":"Dillingham Airport","city":"Dillingham","state":"AK","country":"USA","latitude":59.04541,"longitude":-158.50334}
"DLH"|{"IATA_code":"DLH","airport_name":"Duluth International Airport","city":"Duluth","state":"MN","country":"USA","latitude":46.84209,"longitude":-92.19365}
"DRO"|{"IATA_code":"DRO","airport_name":"Durango-La Plata County Airport","city":"Durango","state":"CO","country":"USA","latitude":37.15152,"longitude":-107.75377}
"DSM"|{"IATA_code":"DSM","airport_name":"Des Moines International Airport","city":"Des Moines","state":"IA","country":"USA","latitude":41.53493,"longitude":-93.66068}
"DTW"|{"IATA_code":"DTW","airport_name":"Detroit Metropolitan Airport","city":"Detroit","state":"MI","country":"USA","latitude":42.21206,"longitude":-83.34884}
"DVL"|{"IATA_code":"DVL","airport_name":"Devils Lake Regional Airport","city":"Devils Lake","state":"ND","country":"USA","latitude":48.11425,"longitude":-98.90878}
"EAU"|{"IATA_code":"EAU","airport_name":"Chippewa Valley Regional Airport","city":"Eau Claire","state":"WI","country":"USA","latitude":44.86526,"longitude":-91.48507}
"ECP"|{"IATA_code":"ECP","airport_name":"Northwest Florida Beaches International Airport","city":"Panama City","state":"FL","country":"USA","latitude":null,"longitude":null}
"EGE"|{"IATA_code":"EGE","airport_name":"Eagle County Regional Airport","city":"Eagle","state":"CO","country":"USA","latitude":39.64257,"longitude":-106.9177}
"EKO"|{"IATA_code":"EKO","airport_name":"Elko Regional Airport","city":"Elko","state":"NV","country":"USA","latitude":40.82493,"longitude":-115.7917}
"ELM"|{"IATA_code":"ELM","airport_name":"Elmira\/Corning Regional Airport","city":"Elmira","state":"NY","country":"USA","latitude":42.15991,"longitude":-76.89144}
"ELP"|{"IATA_code":"ELP","airport_name":"El Paso International Airport","city":"El Paso","state":"TX","country":"USA","latitude":31.80667,"longitude":-106.37781}
"ERI"|{"IATA_code":"ERI","airport_name":"Erie International Airport","city":"Erie","state":"PA","country":"USA","latitude":42.08202,"longitude":-80.17622}
"ESC"|{"IATA_code":"ESC","airport_name":"Delta County Airport","city":"Escanaba","state":"MI","country":"USA","latitude":45.72267,"longitude":-87.09373}
"EUG"|{"IATA_code":"EUG","airport_name":"Eugene Airport\u00c2 (Mahlon Sweet Field)","city":"Eugene","state":"OR","country":"USA","latitude":44.12326,"longitude":-123.21869}
"EVV"|{"IATA_code":"EVV","airport_name":"Evansville Regional Airport","city":"Evansville","state":"IN","country":"USA","latitude":38.03799,"longitude":-87.53063}
"EWN"|{"IATA_code":"EWN","airport_name":"Coastal Carolina Regional Airport\u00c2 (Craven County Regional)","city":"New Bern","state":"NC","country":"USA","latitude":35.07297,"longitude":-77.04294}
"EWR"|{"IATA_code":"EWR","airport_name":"Newark Liberty International Airport","city":"Newark","state":"NJ","country":"USA","latitude":40.6925,"longitude":-74.16866}
"EYW"|{"IATA_code":"EYW","airport_name":"Key West International Airport","city":"Key West","state":"FL","country":"USA","latitude":24.55611,"longitude":-81.75956}
"FAI"|{"IATA_code":"FAI","airport_name":"Fairbanks International Airport","city":"Fairbanks","state":"AK","country":"USA","latitude":64.81368,"longitude":-147.85967}
"FAR"|{"IATA_code":"FAR","airport_name":"Hector International Airport","city":"Fargo","state":"ND","country":"USA","latitude":46.91935,"longitude":-96.81499}
"FAT"|{"IATA_code":"FAT","airport_name":"Fresno Yosemite International Airport","city":"Fresno","state":"CA","country":"USA","latitude":36.77619,"longitude":-119.71814}
"FAY"|{"IATA_code":"FAY","airport_name":"Fayetteville Regional Airport","city":"Fayetteville","state":"NC","country":"USA","latitude":34.99147,"longitude":-78.88}
"FCA"|{"IATA_code":"FCA","airport_name":"Glacier Park International Airport","city":"Kalispell","state":"MT","country":"USA","latitude":48.3114,"longitude":-114.25507}
"FLG"|{"IATA_code":"FLG","airport_name":"Flagstaff Pulliam Airport","city":"Flagstaff","state":"AZ","country":"USA","latitude":35.13845,"longitude":-111.67122}
"FLL"|{"IATA_code":"FLL","airport_name":"Fort Lauderdale-Hollywood International Airport","city":"Ft. Lauderdale","state":"FL","country":"USA","latitude":26.07258,"longitude":-80.15275}
"FNT"|{"IATA_code":"FNT","airport_name":"Bishop International Airport","city":"Flint","state":"MI","country":"USA","latitude":42.9655,"longitude":-83.74346}
"FSD"|{"IATA_code":"FSD","airport_name":"Sioux Falls Regional Airport","city":"Sioux Falls","state":"SD","country":"USA","latitude":43.58135,"longitude":-96.7417}
"FSM"|{"IATA_code":"FSM","airport_name":"Fort Smith Regional Airport","city":"Fort Smith","state":"AR","country":"USA","latitude":35.33659,"longitude":-94.36744}
"FWA"|{"IATA_code":"FWA","airport_name":"Fort Wayne International Airport","city":"Fort Wayne","state":"IN","country":"USA","latitude":40.97847,"longitude":-85.19515}
"GCC"|{"IATA_code":"GCC","airport_name":"Gillette-Campbell County Airport","city":"Gillette","state":"WY","country":"USA","latitude":44.3489,"longitude":-105.53936}
"GCK"|{"IATA_code":"GCK","airport_name":"Garden City Regional Airport","city":"Garden City","state":"KS","country":"USA","latitude":37.92752,"longitude":-100.72441}
"GEG"|{"IATA_code":"GEG","airport_name":"Spokane International Airport","city":"Spokane","state":"WA","country":"USA","latitude":47.61986,"longitude":-117.53384}
"GFK"|{"IATA_code":"GFK","airport_name":"Grand Forks International Airport","city":"Grand Forks","state":"ND","country":"USA","latitude":47.94926,"longitude":-97.17611}
"GGG"|{"IATA_code":"GGG","airport_name":"East Texas Regional Airport","city":"Longview","state":"TX","country":"USA","latitude":32.38486,"longitude":-94.71171}
"GJT"|{"IATA_code":"GJT","airport_name":"Grand Junction Regional Airport\u00c2 (Walker Field)","city":"Grand Junction","state":"CO","country":"USA","latitude":39.12241,"longitude":-108.52673}
"GNV"|{"IATA_code":"GNV","airport_name":"Gainesville Regional Airport","city":"Gainesville","state":"FL","country":"USA","latitude":29.69006,"longitude":-82.27178}
"GPT"|{"IATA_code":"GPT","airport_name":"Gulfport-Biloxi International Airport","city":"Gulfport-Biloxi","state":"MS","country":"USA","latitude":30.40728,"longitude":-89.07009}
"GRB"|{"IATA_code":"GRB","airport_name":"Green Bay-Austin Straubel International Airport","city":"Green Bay","state":"WI","country":"USA","latitude":44.48507,"longitude":-88.12959}
"GRI"|{"IATA_code":"GRI","airport_name":"Central Nebraska Regional Airport","city":"Grand Island","state":"NE","country":"USA","latitude":40.96747,"longitude":-98.30861}
"GRK"|{"IATA_code":"GRK","airport_name":"Killeen-Fort Hood Regional Airport","city":"Killeen","state":"TX","country":"USA","latitude":31.0649,"longitude":-97.8278}
"GRR"|{"IATA_code":"GRR","airport_name":"Gerald R. Ford International Airport","city":"Grand Rapids","state":"MI","country":"USA","latitude":42.88082,"longitude":-85.52277}
"GSO"|{"IATA_code":"GSO","airport_name":"Piedmont Triad International Airport","city":"Greensboro","state":"NC","country":"USA","latitude":36.09775,"longitude":-79.9373}
"GSP"|{"IATA_code":"GSP","airport_name":"Greenville-Spartanburg International Airport","city":"Greer","state":"SC","country":"USA","latitude":34.89567,"longitude":-82.21886}
"GST"|{"IATA_code":"GST","airport_name":"Gustavus Airport","city":"Gustavus","state":"AK","country":"USA","latitude":58.42438,"longitude":-135.70738}
"GTF"|{"IATA_code":"GTF","airport_name":"Great Falls International Airport","city":"Great Falls","state":"MT","country":"USA","latitude":47.482,"longitude":-111.37069}
"GTR"|{"IATA_code":"GTR","airport_name":"Golden Triangle Regional Airport","city":"Columbus-Starkville-West Point","state":"MS","country":"USA","latitude":33.45033,"longitude":-88.59137}
"GUC"|{"IATA_code":"GUC","airport_name":"Gunnison-Crested Butte Regional Airport","city":"Gunnison","state":"CO","country":"USA","latitude":38.53396,"longitude":-106.93318}
"GUM"|{"IATA_code":"GUM","airport_name":"Guam International Airport","city":"Agana","state":"GU","country":"USA","latitude":13.48345,"longitude":-144.79598}
"HDN"|{"IATA_code":"HDN","airport_name":"Yampa Valley Airport\u00c2 (Yampa Valley Regional)","city":"Hayden","state":"CO","country":"USA","latitude":40.48118,"longitude":-107.21766}
"HIB"|{"IATA_code":"HIB","airport_name":"Range Regional Airport\u00c2 (Chisholm-Hibbing Airport)","city":"Hibbing","state":"MN","country":"USA","latitude":47.3866,"longitude":-92.83899}
"HLN"|{"IATA_code":"HLN","airport_name":"Helena Regional Airport","city":"Helena","state":"MT","country":"USA","latitude":46.60682,"longitude":-111.98275}
"HNL"|{"IATA_code":"HNL","airport_name":"Honolulu International Airport","city":"Honolulu","state":"HI","country":"USA","latitude":21.31869,"longitude":-157.92241}
"HOB"|{"IATA_code":"HOB","airport_name":"Lea County Regional Airport","city":"Hobbs","state":"NM","country":"USA","latitude":32.68753,"longitude":-103.21703}
"HOU"|{"IATA_code":"HOU","airport_name":"William P. Hobby Airport","city":"Houston","state":"TX","country":"USA","latitude":29.64542,"longitude":-95.27889}
"HPN"|{"IATA_code":"HPN","airport_name":"Westchester County Airport","city":"White Plains","state":"NY","country":"USA","latitude":41.06696,"longitude":-73.70757}
"HRL"|{"IATA_code":"HRL","airport_name":"Valley International Airport","city":"Harlingen","state":"TX","country":"USA","latitude":26.22851,"longitude":-97.65439}
"HSV"|{"IATA_code":"HSV","airport_name":"Huntsville International Airport","city":"Huntsville","state":"AL","country":"USA","latitude":34.64045,"longitude":-86.77311}
"HYA"|{"IATA_code":"HYA","airport_name":"Barnstable Municipal Airport","city":"Hyannis","state":"MA","country":"USA","latitude":41.66934,"longitude":-70.28036}
"HYS"|{"IATA_code":"HYS","airport_name":"Hays Regional Airport","city":"Hays","state":"KS","country":"USA","latitude":38.84494,"longitude":-99.27403}
"IAD"|{"IATA_code":"IAD","airport_name":"Washington Dulles International Airport","city":"Chantilly","state":"VA","country":"USA","latitude":38.94453,"longitude":-77.45581}
"IAG"|{"IATA_code":"IAG","airport_name":"Niagara Falls International Airport","city":"Niagara Falls","state":"NY","country":"USA","latitude":43.10726,"longitude":-78.94538}
"IAH"|{"IATA_code":"IAH","airport_name":"George Bush Intercontinental Airport","city":"Houston","state":"TX","country":"USA","latitude":29.98047,"longitude":-95.33972}
"ICT"|{"IATA_code":"ICT","airport_name":"Wichita Dwight D. Eisenhower National Airport\u00c2 (Wichita Mid-Continent Airport)","city":"Wichita","state":"KS","country":"USA","latitude":37.64996,"longitude":-97.43305}
"IDA"|{"IATA_code":"IDA","airport_name":"Idaho Falls Regional Airport","city":"Idaho Falls","state":"ID","country":"USA","latitude":43.51456,"longitude":-112.07017}
"ILG"|{"IATA_code":"ILG","airport_name":"Wilmington Airport","city":"Wilmington","state":"DE","country":"USA","latitude":39.67872,"longitude":-75.60653}
"ILM"|{"IATA_code":"ILM","airport_name":"Wilmington International Airport","city":"Wilmington","state":"NC","country":"USA","latitude":34.27061,"longitude":-77.90256}
"IMT"|{"IATA_code":"IMT","airport_name":"Ford Airport","city":"Iron Mountain\/Kingsford","state":"MI","country":"USA","latitude":45.81835,"longitude":-88.11454}
"IND"|{"IATA_code":"IND","airport_name":"Indianapolis International Airport","city":"Indianapolis","state":"IN","country":"USA","latitude":39.71733,"longitude":-86.29438}
"INL"|{"IATA_code":"INL","airport_name":"Falls International Airport","city":"International Falls","state":"MN","country":"USA","latitude":48.56619,"longitude":-93.40307}
"ISN"|{"IATA_code":"ISN","airport_name":"Sloulin Field International Airport","city":"Williston","state":"ND","country":"USA","latitude":48.17794,"longitude":-103.64235}
"ISP"|{"IATA_code":"ISP","airport_name":"Long Island MacArthur Airport","city":"Islip","state":"NY","country":"USA","latitude":40.79524,"longitude":-73.10021}
"ITH"|{"IATA_code":"ITH","airport_name":"Ithaca Tompkins Regional Airport","city":"Ithaca","state":"NY","country":"USA","latitude":42.49103,"longitude":-76.45844}
"ITO"|{"IATA_code":"ITO","airport_name":"Hilo International Airport","city":"Hilo","state":"HI","country":"USA","latitude":19.72026,"longitude":-155.04847}
"JAC"|{"IATA_code":"JAC","airport_name":"Jackson Hole Airport","city":"Jackson","state":"WY","country":"USA","latitude":43.60732,"longitude":-110.73774}
"JAN"|{"IATA_code":"JAN","airport_name":"Jackson-Evers International Airport","city":"Jackson","state":"MS","country":"USA","latitude":32.31117,"longitude":-90.07589}
"JAX"|{"IATA_code":"JAX","airport_name":"Jacksonville International Airport","city":"Jacksonville","state":"FL","country":"USA","latitude":30.49406,"longitude":-81.68786}
"JFK"|{"IATA_code":"JFK","airport_name":"John F. Kennedy International Airport\u00c2 (New York International Airport)","city":"New York","state":"NY","country":"USA","latitude":40.63975,"longitude":-73.77893}
"JLN"|{"IATA_code":"JLN","airport_name":"Joplin Regional Airport","city":"Joplin","state":"MO","country":"USA","latitude":37.15181,"longitude":-94.49827}
"JMS"|{"IATA_code":"JMS","airport_name":"Jamestown Regional Airport","city":"Jamestown","state":"ND","country":"USA","latitude":46.92972,"longitude":-98.6782}
"JNU"|{"IATA_code":"JNU","airport_name":"Juneau International Airport","city":"Juneau","state":"AK","country":"USA","latitude":58.35496,"longitude":-134.57628}
"KOA"|{"IATA_code":"KOA","airport_name":"Kona International Airport at Keahole","city":"Kailua\/Kona","state":"HI","country":"USA","latitude":19.73877,"longitude":-156.04563}
"KTN"|{"IATA_code":"KTN","airport_name":"Ketchikan International Airport","city":"Ketchikan","state":"AK","country":"USA","latitude":55.35557,"longitude":-131.71374}
"LAN"|{"IATA_code":"LAN","airport_name":"Capital Region International Airport\u00c2 ( Lansing Capital City)","city":"Lansing","state":"MI","country":"USA","latitude":42.7787,"longitude":-84.58736}
"LAR"|{"IATA_code":"LAR","airport_name":"Laramie Regional Airport","city":"Laramie","state":"WY","country":"USA","latitude":41.31205,"longitude":-105.67499}
"LAS"|{"IATA_code":"LAS","airport_name":"McCarran International Airport","city":"Las Vegas","state":"NV","country":"USA","latitude":36.08036,"longitude":-115.15233}
"LAW"|{"IATA_code":"LAW","airport_name":"Lawton-Fort Sill Regional Airport","city":"Lawton","state":"OK","country":"USA","latitude":34.56771,"longitude":-98.41664}
"LAX"|{"IATA_code":"LAX","airport_name":"Los Angeles International Airport","city":"Los Angeles","state":"CA","country":"USA","latitude":33.94254,"longitude":-118.40807}
"LBB"|{"IATA_code":"LBB","airport_name":"Lubbock Preston Smith International Airport","city":"Lubbock","state":"TX","country":"USA","latitude":33.66364,"longitude":-101.82278}
"LBE"|{"IATA_code":"LBE","airport_name":"Arnold Palmer Regional Airport","city":"Latrobe","state":"PA","country":"USA","latitude":40.27594,"longitude":-79.4048}
"LCH"|{"IATA_code":"LCH","airport_name":"Lake Charles Regional Airport","city":"Lake Charles","state":"LA","country":"USA","latitude":30.1261,"longitude":-93.2234}
"LEX"|{"IATA_code":"LEX","airport_name":"Blue Grass Airport","city":"Lexington","state":"KY","country":"USA","latitude":38.03697,"longitude":-84.60539}
"LFT"|{"IATA_code":"LFT","airport_name":"Lafayette Regional Airport","city":"Lafayette","state":"LA","country":"USA","latitude":30.20528,"longitude":-91.98766}
"LGA"|{"IATA_code":"LGA","airport_name":"LaGuardia Airport (Marine Air Terminal)","city":"New York","state":"NY","country":"USA","latitude":40.77724,"longitude":-73.87261}
"LGB"|{"IATA_code":"LGB","airport_name":"Long Beach Airport\u00c2 (Daugherty Field)","city":"Long Beach","state":"CA","country":"USA","latitude":33.81772,"longitude":-118.15161}
"LIH"|{"IATA_code":"LIH","airport_name":"Lihue Airport","city":"Lihue","state":"HI","country":"USA","latitude":21.97598,"longitude":-159.33896}
"LIT"|{"IATA_code":"LIT","airport_name":"Bill and Hillary Clinton National Airport\u00c2 (Adams Field)","city":"Little Rock","state":"AR","country":"USA","latitude":34.7294,"longitude":-92.22425}
"LNK"|{"IATA_code":"LNK","airport_name":"Lincoln Airport\u00c2 (Lincoln Municipal)","city":"Lincoln","state":"NE","country":"USA","latitude":40.85097,"longitude":-96.75925}
"LRD"|{"IATA_code":"LRD","airport_name":"Laredo International Airport","city":"Laredo","state":"TX","country":"USA","latitude":27.54374,"longitude":-99.46154}
"LSE"|{"IATA_code":"LSE","airport_name":"La Crosse Regional Airport","city":"La Crosse","state":"WI","country":"USA","latitude":43.87938,"longitude":-91.25654}
"LWS"|{"IATA_code":"LWS","airport_name":"Lewiston-Nez Perce County Airport","city":"Lewiston","state":"ID","country":"USA","latitude":46.3745,"longitude":-117.01539}
"MAF"|{"IATA_code":"MAF","airport_name":"Midland International Airport","city":"Midland","state":"TX","country":"USA","latitude":31.94253,"longitude":-102.20191}
"MBS"|{"IATA_code":"MBS","airport_name":"MBS International Airport","city":"Saginaw","state":"MI","country":"USA","latitude":43.53291,"longitude":-84.07965}
"MCI"|{"IATA_code":"MCI","airport_name":"Kansas City International Airport","city":"Kansas City","state":"MO","country":"USA","latitude":39.29761,"longitude":-94.71391}
"MCO"|{"IATA_code":"MCO","airport_name":"Orlando International Airport","city":"Orlando","state":"FL","country":"USA","latitude":28.42889,"longitude":-81.31603}
"MDT"|{"IATA_code":"MDT","airport_name":"Harrisburg International Airport","city":"Harrisburg","state":"PA","country":"USA","latitude":40.1935,"longitude":-76.7634}
"MDW"|{"IATA_code":"MDW","airport_name":"Chicago Midway International Airport","city":"Chicago","state":"IL","country":"USA","latitude":41.78598,"longitude":-87.75242}
"MEI"|{"IATA_code":"MEI","airport_name":"Meridian Regional Airport","city":"Meridian","state":"MS","country":"USA","latitude":32.33313,"longitude":-88.75121}
"MEM"|{"IATA_code":"MEM","airport_name":"Memphis International Airport","city":"Memphis","state":"TN","country":"USA","latitude":35.04242,"longitude":-89.97667}
"MFE"|{"IATA_code":"MFE","airport_name":"McAllen-Miller International Airport\u00c2 (McAllen Miller International)","city":"McAllen","state":"TX","country":"USA","latitude":26.17583,"longitude":-98.23861}
"MFR"|{"IATA_code":"MFR","airport_name":"Rogue Valley International Airport","city":"Medford","state":"OR","country":"USA","latitude":42.37423,"longitude":-122.8735}
"MGM"|{"IATA_code":"MGM","airport_name":"Montgomery Regional Airport","city":"Montgomery","state":"AL","country":"USA","latitude":32.30064,"longitude":-86.39398}
"MHK"|{"IATA_code":"MHK","airport_name":"Manhattan Regional Airport","city":"Manhattan","state":"KS","country":"USA","latitude":39.14097,"longitude":-96.67083}
"MHT"|{"IATA_code":"MHT","airport_name":"Manchester-Boston Regional Airport","city":"Manchester","state":"NH","country":"USA","latitude":42.93452,"longitude":-71.43706}
"MIA"|{"IATA_code":"MIA","airport_name":"Miami International Airport","city":"Miami","state":"FL","country":"USA","latitude":25.79325,"longitude":-80.29056}
"MKE"|{"IATA_code":"MKE","airport_name":"General Mitchell International Airport","city":"Milwaukee","state":"WI","country":"USA","latitude":42.94722,"longitude":-87.89658}
"MKG"|{"IATA_code":"MKG","airport_name":"Muskegon County Airport","city":"Muskegon","state":"MI","country":"USA","latitude":43.16949,"longitude":-86.23822}
"MLB"|{"IATA_code":"MLB","airport_name":"Melbourne International Airport","city":"Melbourne","state":"FL","country":"USA","latitude":28.10275,"longitude":-80.64581}
"MLI"|{"IATA_code":"MLI","airport_name":"Quad City International Airport","city":"Moline","state":"IL","country":"USA","latitude":41.44853,"longitude":-90.50754}
"MLU"|{"IATA_code":"MLU","airport_name":"Monroe Regional Airport","city":"Monroe","state":"LA","country":"USA","latitude":32.51087,"longitude":-92.03769}
"MMH"|{"IATA_code":"MMH","airport_name":"Mammoth Yosemite Airport","city":"Mammoth Lakes","state":"CA","country":"USA","latitude":37.62405,"longitude":-118.83777}
"MOB"|{"IATA_code":"MOB","airport_name":"Mobile Regional Airport","city":"Mobile","state":"AL","country":"USA","latitude":30.69142,"longitude":-88.24283}
"MOT"|{"IATA_code":"MOT","airport_name":"Minot International Airport","city":"Minot","state":"ND","country":"USA","latitude":48.25938,"longitude":-101.28033}
"MQT"|{"IATA_code":"MQT","airport_name":"Sawyer International Airport","city":"Marquette","state":"MI","country":"USA","latitude":46.35364,"longitude":-87.39536}
"MRY"|{"IATA_code":"MRY","airport_name":"Monterey Regional Airport\u00c2 (Monterey Peninsula Airport)","city":"Monterey","state":"CA","country":"USA","latitude":36.58698,"longitude":-121.84295}
"MSN"|{"IATA_code":"MSN","airport_name":"Dane County Regional Airport","city":"Madison","state":"WI","country":"USA","latitude":43.13986,"longitude":-89.33751}
"MSO"|{"IATA_code":"MSO","airport_name":"Missoula International Airport","city":"Missoula","state":"MT","country":"USA","latitude":46.91631,"longitude":-114.09056}
"MSP"|{"IATA_code":"MSP","airport_name":"Minneapolis-Saint Paul International Airport","city":"Minneapolis","state":"MN","country":"USA","latitude":44.88055,"longitude":-93.21692}
"MSY"|{"IATA_code":"MSY","airport_name":"Louis Armstrong New Orleans International Airport","city":"New Orleans","state":"LA","country":"USA","latitude":29.99339,"longitude":-90.25803}
"MTJ"|{"IATA_code":"MTJ","airport_name":"Montrose Regional Airport","city":"Montrose","state":"CO","country":"USA","latitude":38.50887,"longitude":-107.89383}
"MVY"|{"IATA_code":"MVY","airport_name":"Martha's Vineyard Airport","city":"Marthas Vineyard","state":"MA","country":"USA","latitude":41.39303,"longitude":-70.61433}
"MYR"|{"IATA_code":"MYR","airport_name":"Myrtle Beach International Airport","city":"Myrtle Beach","state":"SC","country":"USA","latitude":33.67975,"longitude":-78.92833}
"OAJ"|{"IATA_code":"OAJ","airport_name":"Albert J. Ellis Airport","city":"Jacksonville","state":"NC","country":"USA","latitude":34.82916,"longitude":-77.61214}
"OAK"|{"IATA_code":"OAK","airport_name":"Oakland International Airport","city":"Oakland","state":"CA","country":"USA","latitude":37.72129,"longitude":-122.22072}
"OGG"|{"IATA_code":"OGG","airport_name":"Kahului Airport","city":"Kahului","state":"HI","country":"USA","latitude":20.89865,"longitude":-156.43046}
"OKC"|{"IATA_code":"OKC","airport_name":"Will Rogers World Airport","city":"Oklahoma City","state":"OK","country":"USA","latitude":35.39309,"longitude":-97.60073}
"OMA"|{"IATA_code":"OMA","airport_name":"Eppley Airfield","city":"Omaha","state":"NE","country":"USA","latitude":41.30252,"longitude":-95.89417}
"OME"|{"IATA_code":"OME","airport_name":"Nome Airport","city":"Nome","state":"AK","country":"USA","latitude":64.5122,"longitude":-165.44525}
"ONT"|{"IATA_code":"ONT","airport_name":"Ontario International Airport","city":"Ontario","state":"CA","country":"USA","latitude":34.056,"longitude":-117.60119}
"ORD"|{"IATA_code":"ORD","airport_name":"Chicago O'Hare International Airport","city":"Chicago","state":"IL","country":"USA","latitude":41.9796,"longitude":-87.90446}
"ORF"|{"IATA_code":"ORF","airport_name":"Norfolk International Airport","city":"Norfolk","state":"VA","country":"USA","latitude":36.89461,"longitude":-76.20122}
"ORH"|{"IATA_code":"ORH","airport_name":"Worcester Regional Airport","city":"Worcester","state":"MA","country":"USA","latitude":42.26734,"longitude":-71.87571}
"OTH"|{"IATA_code":"OTH","airport_name":"Southwest Oregon Regional Airport\u00c2 (North Bend Municipal)","city":"North Bend","state":"OR","country":"USA","latitude":43.41714,"longitude":-124.24603}
"OTZ"|{"IATA_code":"OTZ","airport_name":"Ralph Wien Memorial Airport","city":"Kotzebue","state":"AK","country":"USA","latitude":66.88468,"longitude":-162.59855}
"PAH"|{"IATA_code":"PAH","airport_name":"Barkley Regional Airport","city":"Paducah","state":"KY","country":"USA","latitude":37.06083,"longitude":-88.77375}
"PBG"|{"IATA_code":"PBG","airport_name":"Plattsburgh International Airport","city":"Plattsburgh","state":"NY","country":"USA","latitude":null,"longitude":null}
"PBI"|{"IATA_code":"PBI","airport_name":"Palm Beach International Airport","city":"West Palm Beach","state":"FL","country":"USA","latitude":26.68316,"longitude":-80.09559}
"PDX"|{"IATA_code":"PDX","airport_name":"Portland International Airport","city":"Portland","state":"OR","country":"USA","latitude":45.58872,"longitude":-122.5975}
"PHF"|{"IATA_code":"PHF","airport_name":"Newport News\/Williamsburg International Airport","city":"Newport News","state":"VA","country":"USA","latitude":37.1319,"longitude":-76.49299}
"PHL"|{"IATA_code":"PHL","airport_name":"Philadelphia International Airport","city":"Philadelphia","state":"PA","country":"USA","latitude":39.87195,"longitude":-75.24114}
"PHX"|{"IATA_code":"PHX","airport_name":"Phoenix Sky Harbor International Airport","city":"Phoenix","state":"AZ","country":"USA","latitude":33.43417,"longitude":-112.00806}
"PIA"|{"IATA_code":"PIA","airport_name":"General Wayne A. Downing Peoria International Airport","city":"Peoria","state":"IL","country":"USA","latitude":40.66424,"longitude":-89.69331}
"PIB"|{"IATA_code":"PIB","airport_name":"Hattiesburg-Laurel Regional Airport","city":"Hattiesburg-Laurel","state":"MS","country":"USA","latitude":31.46715,"longitude":-89.33706}
"PIH"|{"IATA_code":"PIH","airport_name":"Pocatello Regional Airport","city":"Pocatello","state":"ID","country":"USA","latitude":42.91131,"longitude":-112.59586}
"PIT"|{"IATA_code":"PIT","airport_name":"Pittsburgh International Airport","city":"Pittsburgh","state":"PA","country":"USA","latitude":40.49147,"longitude":-80.23287}
"PLN"|{"IATA_code":"PLN","airport_name":"Pellston Regional Airport of Emmet County","city":"Pellston","state":"MI","country":"USA","latitude":45.57093,"longitude":-84.79672}
"PNS"|{"IATA_code":"PNS","airport_name":"Pensacola International Airport\u00c2 (Pensacola Gulf Coast Regional Airport)","city":"Pensacola","state":"FL","country":"USA","latitude":30.47331,"longitude":-87.18744}
"PPG"|{"IATA_code":"PPG","airport_name":"Pago Pago International Airport (Tafuna Airport)","city":"Pago Pago","state":"AS","country":"USA","latitude":14.33102,"longitude":-170.71053}
"PSC"|{"IATA_code":"PSC","airport_name":"Tri-Cities Airport","city":"Pasco","state":"WA","country":"USA","latitude":46.26468,"longitude":-119.11903}
"PSE"|{"IATA_code":"PSE","airport_name":"Mercedita Airport","city":"Ponce","state":"PR","country":"USA","latitude":18.0083,"longitude":-66.56301}
"PSG"|{"IATA_code":"PSG","airport_name":"Petersburg James A. Johnson Airport","city":"Petersburg","state":"AK","country":"USA","latitude":56.80165,"longitude":-132.94528}
"PSP"|{"IATA_code":"PSP","airport_name":"Palm Springs International Airport","city":"Palm Springs","state":"CA","country":"USA","latitude":33.82922,"longitude":-116.50625}
"PUB"|{"IATA_code":"PUB","airport_name":"Pueblo Memorial Airport","city":"Pueblo","state":"CO","country":"USA","latitude":38.28909,"longitude":-104.49657}
"PVD"|{"IATA_code":"PVD","airport_name":"Theodore Francis Green State Airport","city":"Providence","state":"RI","country":"USA","latitude":41.724,"longitude":-71.42822}
"PWM"|{"IATA_code":"PWM","airport_name":"Portland International Jetport","city":"Portland","state":"ME","country":"USA","latitude":43.64617,"longitude":-70.30875}
"RAP"|{"IATA_code":"RAP","airport_name":"Rapid City Regional Airport","city":"Rapid City","state":"SD","country":"USA","latitude":44.04532,"longitude":-103.05737}
"RDD"|{"IATA_code":"RDD","airport_name":"Redding Municipal Airport","city":"Redding","state":"CA","country":"USA","latitude":40.50898,"longitude":-122.2934}
"RDM"|{"IATA_code":"RDM","airport_name":"Redmond Municipal Airport\u00c2 (Roberts Field)","city":"Redmond","state":"OR","country":"USA","latitude":44.25407,"longitude":-121.14996}
"RDU"|{"IATA_code":"RDU","airport_name":"Raleigh-Durham International Airport","city":"Raleigh","state":"NC","country":"USA","latitude":35.87764,"longitude":-78.78747}
"RHI"|{"IATA_code":"RHI","airport_name":"Rhinelander-Oneida County Airport","city":"Rhinelander","state":"WI","country":"USA","latitude":45.63119,"longitude":-89.46745}
"RIC"|{"IATA_code":"RIC","airport_name":"Richmond International Airport","city":"Richmond","state":"VA","country":"USA","latitude":37.50517,"longitude":-77.31967}
"RKS"|{"IATA_code":"RKS","airport_name":"Rock Springs-Sweetwater County Airport","city":"Rock Springs","state":"WY","country":"USA","latitude":41.59422,"longitude":-109.06519}
"RNO"|{"IATA_code":"RNO","airport_name":"Reno\/Tahoe International Airport","city":"Reno","state":"NV","country":"USA","latitude":39.49858,"longitude":-119.76806}
"ROA"|{"IATA_code":"ROA","airport_name":"Roanoke Regional Airport\u00c2 (Woodrum Field)","city":"Roanoke","state":"VA","country":"USA","latitude":37.32547,"longitude":-79.97543}
"ROC"|{"IATA_code":"ROC","airport_name":"Greater Rochester International Airport","city":"Rochester","state":"NY","country":"USA","latitude":43.11887,"longitude":-77.67238}
"ROW"|{"IATA_code":"ROW","airport_name":"Roswell International Air Center","city":"Roswell","state":"NM","country":"USA","latitude":33.30156,"longitude":-104.53056}
"RST"|{"IATA_code":"RST","airport_name":"Rochester International Airport","city":"Rochester","state":"MN","country":"USA","latitude":43.90883,"longitude":-92.49799}
"RSW"|{"IATA_code":"RSW","airport_name":"Southwest Florida International Airport","city":"Ft. Myers","state":"FL","country":"USA","latitude":26.53617,"longitude":-81.75517}
"SAF"|{"IATA_code":"SAF","airport_name":"Santa Fe Municipal Airport","city":"Santa Fe","state":"NM","country":"USA","latitude":35.61678,"longitude":-106.08814}
"SAN"|{"IATA_code":"SAN","airport_name":"San Diego International Airport\u00c2 (Lindbergh Field)","city":"San Diego","state":"CA","country":"USA","latitude":32.73356,"longitude":-117.18966}
"SAT"|{"IATA_code":"SAT","airport_name":"San Antonio International Airport","city":"San Antonio","state":"TX","country":"USA","latitude":29.53369,"longitude":-98.46978}
"SAV"|{"IATA_code":"SAV","airport_name":"Savannah\/Hilton Head International Airport","city":"Savannah","state":"GA","country":"USA","latitude":32.12758,"longitude":-81.20214}
"SBA"|{"IATA_code":"SBA","airport_name":"Santa Barbara Municipal Airport\u00c2 (Santa Barbara Airport)","city":"Santa Barbara","state":"CA","country":"USA","latitude":34.42621,"longitude":-119.84037}
"SBN"|{"IATA_code":"SBN","airport_name":"South Bend International Airport\u00c2 (South Bend Regional)","city":"South Bend","state":"IN","country":"USA","latitude":41.70895,"longitude":-86.31847}
"SBP"|{"IATA_code":"SBP","airport_name":"San Luis Obispo County Regional Airport\u00c2 (McChesney Field)","city":"San Luis Obispo","state":"CA","country":"USA","latitude":35.23706,"longitude":-120.64239}
"SCC"|{"IATA_code":"SCC","airport_name":"Deadhorse Airport\u00c2 (Prudhoe Bay Airport)","city":"Deadhorse","state":"AK","country":"USA","latitude":70.19476,"longitude":-148.46516}
"SCE"|{"IATA_code":"SCE","airport_name":"University Park Airport","city":"State College","state":"PA","country":"USA","latitude":40.85121,"longitude":-77.8463}
"SDF"|{"IATA_code":"SDF","airport_name":"Louisville International Airport\u00c2 (Standiford Field)","city":"Louisville","state":"KY","country":"USA","latitude":38.17439,"longitude":-85.736}
"SEA"|{"IATA_code":"SEA","airport_name":"Seattle-Tacoma International Airport","city":"Seattle","state":"WA","country":"USA","latitude":47.44898,"longitude":-122.30931}
"SFO"|{"IATA_code":"SFO","airport_name":"San Francisco International Airport","city":"San Francisco","state":"CA","country":"USA","latitude":37.619,"longitude":-122.37484}
"SGF"|{"IATA_code":"SGF","airport_name":"Springfield-Branson National Airport","city":"Springfield","state":"MO","country":"USA","latitude":37.24433,"longitude":-93.38686}
"SGU"|{"IATA_code":"SGU","airport_name":"St. George Regional Airport","city":"St George","state":"UT","country":"USA","latitude":37.09058,"longitude":-113.59306}
"SHV"|{"IATA_code":"SHV","airport_name":"Shreveport Regional Airport","city":"Shreveport","state":"LA","country":"USA","latitude":32.44663,"longitude":-93.8256}
"SIT"|{"IATA_code":"SIT","airport_name":"Sitka Rocky Gutierrez Airport","city":"Sitka","state":"AK","country":"USA","latitude":57.04714,"longitude":-135.3616}
"SJC"|{"IATA_code":"SJC","airport_name":"Norman Y. Mineta San Jos\u00c3\u00a9 International Airport","city":"San Jose","state":"CA","country":"USA","latitude":37.36186,"longitude":-121.92901}
"SJT"|{"IATA_code":"SJT","airport_name":"San Angelo Regional Airport\u00c2 (Mathis Field)","city":"San Angelo","state":"TX","country":"USA","latitude":31.35775,"longitude":-100.49631}
"SJU"|{"IATA_code":"SJU","airport_name":"Luis Mu\u00c3\u00b1oz Mar\u00c3\u00adn International Airport","city":"San Juan","state":"PR","country":"USA","latitude":18.43942,"longitude":-66.00183}
"SLC"|{"IATA_code":"SLC","airport_name":"Salt Lake City International Airport","city":"Salt Lake City","state":"UT","country":"USA","latitude":40.78839,"longitude":-111.97777}
"SMF"|{"IATA_code":"SMF","airport_name":"Sacramento International Airport","city":"Sacramento","state":"CA","country":"USA","latitude":38.69542,"longitude":-121.59077}
"SMX"|{"IATA_code":"SMX","airport_name":"Santa Maria Public Airport\u00c2 (Capt G. Allan Hancock Field)","city":"Santa Maria","state":"CA","country":"USA","latitude":34.89925,"longitude":-120.45758}
"SNA"|{"IATA_code":"SNA","airport_name":"John Wayne Airport\u00c2 (Orange County Airport)","city":"Santa Ana","state":"CA","country":"USA","latitude":33.67566,"longitude":-117.86822}
"SPI"|{"IATA_code":"SPI","airport_name":"Abraham Lincoln Capital Airport","city":"Springfield","state":"IL","country":"USA","latitude":39.84395,"longitude":-89.67762}
"SPS"|{"IATA_code":"SPS","airport_name":"Wichita Falls Municipal Airport\/Sheppard AFB","city":"Wichita Falls","state":"TX","country":"USA","latitude":33.9888,"longitude":-98.49189}
"SRQ"|{"IATA_code":"SRQ","airport_name":"Sarasota-Bradenton International Airport","city":"Sarasota","state":"FL","country":"USA","latitude":27.39533,"longitude":-82.55411}
"STC"|{"IATA_code":"STC","airport_name":"St. Cloud Regional Airport","city":"St Cloud","state":"MN","country":"USA","latitude":45.54532,"longitude":-94.05834}
"STL"|{"IATA_code":"STL","airport_name":"St. Louis International Airport at Lambert Field","city":"St Louis","state":"MO","country":"USA","latitude":38.74769,"longitude":-90.35999}
"STT"|{"IATA_code":"STT","airport_name":"Cyril E. King Airport","city":"Charlotte Amalie","state":"VI","country":"USA","latitude":18.33731,"longitude":-64.97336}
"STX"|{"IATA_code":"STX","airport_name":"Henry E. Rohlsen Airport","city":"Christiansted","state":"VI","country":"USA","latitude":17.70189,"longitude":-64.79856}
"SUN"|{"IATA_code":"SUN","airport_name":"Friedman Memorial Airport","city":"Hailey","state":"ID","country":"USA","latitude":43.50484,"longitude":-114.29659}
"SUX"|{"IATA_code":"SUX","airport_name":"Sioux Gateway Airport","city":"Sioux City","state":"IA","country":"USA","latitude":42.4026,"longitude":-96.38437}
"SWF"|{"IATA_code":"SWF","airport_name":"Stewart International Airport","city":"Newburgh","state":"NY","country":"USA","latitude":41.50409,"longitude":-74.10484}
"SYR"|{"IATA_code":"SYR","airport_name":"Syracuse Hancock International Airport","city":"Syracuse","state":"NY","country":"USA","latitude":43.11119,"longitude":-76.10631}
"TLH"|{"IATA_code":"TLH","airport_name":"Tallahassee International Airport","city":"Tallahassee","state":"FL","country":"USA","latitude":30.39653,"longitude":-84.35033}
"TOL"|{"IATA_code":"TOL","airport_name":"Toledo Express Airport","city":"Toledo","state":"OH","country":"USA","latitude":41.58681,"longitude":-83.80783}
"TPA"|{"IATA_code":"TPA","airport_name":"Tampa International Airport","city":"Tampa","state":"FL","country":"USA","latitude":27.97547,"longitude":-82.53325}
"TRI"|{"IATA_code":"TRI","airport_name":"Tri-Cities Regional Airport","city":"Bristol","state":"TN","country":"USA","latitude":36.47521,"longitude":-82.40742}
"TTN"|{"IATA_code":"TTN","airport_name":"Trenton Mercer Airport","city":"Trenton","state":"NJ","country":"USA","latitude":40.27669,"longitude":-74.81347}
"TUL"|{"IATA_code":"TUL","airport_name":"Tulsa International Airport","city":"Tulsa","state":"OK","country":"USA","latitude":36.19837,"longitude":-95.88824}
"TUS"|{"IATA_code":"TUS","airport_name":"Tucson International Airport","city":"Tucson","state":"AZ","country":"USA","latitude":32.11608,"longitude":-110.94103}
"TVC"|{"IATA_code":"TVC","airport_name":"Cherry Capital Airport","city":"Traverse City","state":"MI","country":"USA","latitude":44.74144,"longitude":-85.58224}
"TWF"|{"IATA_code":"TWF","airport_name":"Magic Valley Regional Airport\u00c2 (Joslin Field)","city":"Twin Falls","state":"ID","country":"USA","latitude":42.4818,"longitude":-114.48774}
"TXK"|{"IATA_code":"TXK","airport_name":"Texarkana Regional Airport\u00c2 (Webb Field)","city":"Texarkana","state":"AR","country":"USA","latitude":33.45371,"longitude":-93.99102}
"TYR"|{"IATA_code":"TYR","airport_name":"Tyler Pounds Regional Airport","city":"Tyler","state":"TX","country":"USA","latitude":32.35414,"longitude":-95.40239}
"TYS"|{"IATA_code":"TYS","airport_name":"McGhee Tyson Airport","city":"Knoxville","state":"TN","country":"USA","latitude":35.81249,"longitude":-83.99286}
"UST"|{"IATA_code":"UST","airport_name":"Northeast Florida Regional Airport\u00c2 (St. Augustine Airport)","city":"St. Augustine","state":"FL","country":"USA","latitude":null,"longitude":null}
"VEL"|{"IATA_code":"VEL","airport_name":"Valdez Airport","city":"Vernal","state":"UT","country":"USA","latitude":40.4409,"longitude":-109.50992}
"VLD"|{"IATA_code":"VLD","airport_name":"Valdosta Regional Airport","city":"Valdosta","state":"GA","country":"USA","latitude":30.7825,"longitude":-83.27672}
"VPS"|{"IATA_code":"VPS","airport_name":"Destin-Fort Walton Beach Airport\/Eglin AFB","city":"Valparaiso","state":"FL","country":"USA","latitude":30.48325,"longitude":-86.5254}
"WRG"|{"IATA_code":"WRG","airport_name":"Wrangell Airport","city":"Wrangell","state":"AK","country":"USA","latitude":56.48433,"longitude":-132.36982}
"WYS"|{"IATA_code":"WYS","airport_name":"Westerly State Airport","city":"West Yellowstone","state":"MT","country":"USA","latitude":44.6884,"longitude":-111.11764}
"XNA"|{"IATA_code":"XNA","airport_name":"Northwest Arkansas Regional Airport","city":"Fayetteville\/Springdale\/Rogers","state":"AR","country":"USA","latitude":36.28187,"longitude":-94.30681}
"YAK"|{"IATA_code":"YAK","airport_name":"Yakutat Airport","city":"Yakutat","state":"AK","country":"USA","latitude":59.50336,"longitude":-139.66023}
"YUM"|{"IATA_code":"YUM","airport_name":"Yuma International Airport","city":"Yuma","state":"AZ","country":"USA","latitude":32.65658,"longitude":-114.60597}